DUPLEX                  
1 66906U 98067XS  26124.77414187  .00023879  00000+0  29888-3 0  9997
2 66906  51.6261 148.1674 0005520  18.1074 342.0115 15.59650652 23874
ISS OBJECT XT           
1 66907U 98067XT  26124.26620673  .01400150  12973-2  15467-2 0  9995
2 66907  51.6103 136.3394 0006777  35.5197 324.6267 16.09193601 23980
ISS OBJECT XU           
1 66908U 98067XU  26124.25038453  .01443506  14194-2  15352-2 0  9996
2 66908  51.6108 136.2247 0006727  36.3523 323.7946 16.09807506 23989
ISS OBJECT XW           
1 66910U 98067XW  26124.24429984  .00584221  15492-3  13349-2 0  9997
2 66910  51.6124 137.7137 0009093  33.7999 326.3588 15.96741824 23965
ISS OBJECT XY           
1 66912U 98067XY  26124.28342144  .00145225  00000+0  87671-3 0  9997
2 66912  51.6220 143.3392 0008106  28.9860 331.1589 15.76637903 23883
KNACKSAT-2              
1 67683U 98067XZ  26124.47714523  .00040009  00000+0  55994-3 0  9995
2 67683  51.6275 153.6873 0012746  35.8918 324.2927 15.56312178 13467
CORAL                   
1 67684U 98067YA  26124.77747881  .00110651  00000+0  11089-2 0  9999
2 67684  51.6248 149.6849 0016386  32.6174 327.5829 15.64520409 13542
GXIBA-1                 
1 67685U 98067YB  26124.44980704  .00041802  00000+0  56424-3 0  9991
2 67685  51.6272 153.5044 0014695  33.4901 326.7017 15.57233971 13467
UITMSAT-2               
1 67686U 98067YC  26124.46649612  .00057330  00000+0  71982-3 0  9993
2 67686  51.6269 152.8678 0011590  16.7038 343.4335 15.59069215 13475
HMU-SAT2                
1 67687U 98067YD  26124.78303109  .00041827  00000+0  57317-3 0  9997
2 67687  51.6282 151.9851 0010945  18.3548 341.7836 15.56885110 13431
LEOPARD                 
1 67688U 98067YE  26124.29568846  .00046949  00000+0  61083-3 0  9990
2 67688  51.6280 153.9805 0011249  15.7364 344.3976 15.58217003 13364
CREW DRAGON 12          
1 67796U 26031A   26124.78032786  .00006047  00000+0  11742-3 0  9997
2 67796  51.6304 154.9608 0007349  23.5190 336.6133 15.49094049565288
