
    {
        "ARG_OF_PERICENTER": 18.1074,
        "BSTAR": 0.00029888,
        "CLASSIFICATION_TYPE": "U",
        "ECCENTRICITY": 0.000552,
        "ELEMENT_SET_NO": 999,
        "EPHEMERIS_TYPE": 0,
        "EPOCH": "2026-05-04T18:34:45.857568",
        "INCLINATION": 51.6261,
        "MEAN_ANOMALY": 342.0115,
        "MEAN_MOTION": 15.59650652,
        "MEAN_MOTION_DDOT": 0,
        "MEAN_MOTION_DOT": 0.00023879,
        "NORAD_CAT_ID": 66906,
        "OBJECT_ID": "1998-067XS",
        "OBJECT_NAME": "DUPLEX",
        "RA_OF_ASC_NODE": 148.1674,
        "REV_AT_EPOCH": 2387
    },
    {
        "ARG_OF_PERICENTER": 35.5197,
        "BSTAR": 0.0015466637,
        "CLASSIFICATION_TYPE": "U",
        "ECCENTRICITY": 0.00067779,
        "ELEMENT_SET_NO": 999,
        "EPHEMERIS_TYPE": 0,
        "EPOCH": "2026-05-04T06:23:20.261472",
        "INCLINATION": 51.6103,
        "MEAN_ANOMALY": 324.6267,
        "MEAN_MOTION": 16.09193601,
        "MEAN_MOTION_DDOT": 0.0012972757,
        "MEAN_MOTION_DOT": 0.0140015,
        "NORAD_CAT_ID": 66907,
        "OBJECT_ID": "1998-067XT",
        "OBJECT_NAME": "ISS OBJECT XT",
        "RA_OF_ASC_NODE": 136.3394,
        "REV_AT_EPOCH": 2398
    },
    {
        "ARG_OF_PERICENTER": 36.3523,
        "BSTAR": 0.0015351536,
        "CLASSIFICATION_TYPE": "U",
        "ECCENTRICITY": 0.00067277,
        "ELEMENT_SET_NO": 999,
        "EPHEMERIS_TYPE": 0,
        "EPOCH": "2026-05-04T06:00:33.223392",
        "INCLINATION": 51.6108,
        "MEAN_ANOMALY": 323.7946,
        "MEAN_MOTION": 16.09807506,
        "MEAN_MOTION_DDOT": 0.0014193542,
        "MEAN_MOTION_DOT": 0.01443506,
        "NORAD_CAT_ID": 66908,
        "OBJECT_ID": "1998-067XU",
        "OBJECT_NAME": "ISS OBJECT XU",
        "RA_OF_ASC_NODE": 136.2247,
        "REV_AT_EPOCH": 2398
    },
    {
        "ARG_OF_PERICENTER": 33.7999,
        "BSTAR": 0.0013348848,
        "CLASSIFICATION_TYPE": "U",
        "ECCENTRICITY": 0.00090936,
        "ELEMENT_SET_NO": 999,
        "EPHEMERIS_TYPE": 0,
        "EPOCH": "2026-05-04T05:51:47.506176",
        "INCLINATION": 51.6124,
        "MEAN_ANOMALY": 326.3588,
        "MEAN_MOTION": 15.96741824,
        "MEAN_MOTION_DDOT": 0.00015492067,
        "MEAN_MOTION_DOT": 0.00584221,
        "NORAD_CAT_ID": 66910,
        "OBJECT_ID": "1998-067XW",
        "OBJECT_NAME": "ISS OBJECT XW",
        "RA_OF_ASC_NODE": 137.7137,
        "REV_AT_EPOCH": 2396
    },
    {
        "ARG_OF_PERICENTER": 28.986,
        "BSTAR": 0.00087671079,
        "CLASSIFICATION_TYPE": "U",
        "ECCENTRICITY": 0.00081066,
        "ELEMENT_SET_NO": 999,
        "EPHEMERIS_TYPE": 0,
        "EPOCH": "2026-05-04T06:48:07.612416",
        "INCLINATION": 51.622,
        "MEAN_ANOMALY": 331.1589,
        "MEAN_MOTION": 15.76637903,
        "MEAN_MOTION_DDOT": 0,
        "MEAN_MOTION_DOT": 0.00145225,
        "NORAD_CAT_ID": 66912,
        "OBJECT_ID": "1998-067XY",
        "OBJECT_NAME": "ISS OBJECT XY",
        "RA_OF_ASC_NODE": 143.3392,
        "REV_AT_EPOCH": 2388
    },
    {
        "ARG_OF_PERICENTER": 35.8918,
        "BSTAR": 0.00055993709,
        "CLASSIFICATION_TYPE": "U",
        "ECCENTRICITY": 0.00127468,
        "ELEMENT_SET_NO": 999,
        "EPHEMERIS_TYPE": 0,
        "EPOCH": "2026-05-04T11:27:05.347872",
        "INCLINATION": 51.6275,
        "MEAN_ANOMALY": 324.2927,
        "MEAN_MOTION": 15.56312178,
        "MEAN_MOTION_DDOT": 0,
        "MEAN_MOTION_DOT": 0.00040009,
        "NORAD_CAT_ID": 67683,
        "OBJECT_ID": "1998-067XZ",
        "OBJECT_NAME": "KNACKSAT-2",
        "RA_OF_ASC_NODE": 153.6873,
        "REV_AT_EPOCH": 1346
    },
    {
        "ARG_OF_PERICENTER": 32.6174,
        "BSTAR": 0.0011089,
        "CLASSIFICATION_TYPE": "U",
        "ECCENTRICITY": 0.0016386,
        "ELEMENT_SET_NO": 999,
        "EPHEMERIS_TYPE": 0,
        "EPOCH": "2026-05-04T18:39:34.169184",
        "INCLINATION": 51.6248,
        "MEAN_ANOMALY": 327.5829,
        "MEAN_MOTION": 15.64520409,
        "MEAN_MOTION_DDOT": 0,
        "MEAN_MOTION_DOT": 0.00110651,
        "NORAD_CAT_ID": 67684,
        "OBJECT_ID": "1998-067YA",
        "OBJECT_NAME": "CORAL",
        "RA_OF_ASC_NODE": 149.6849,
        "REV_AT_EPOCH": 1354
    },
    {
        "ARG_OF_PERICENTER": 33.4901,
        "BSTAR": 0.00056423921,
        "CLASSIFICATION_TYPE": "U",
        "ECCENTRICITY": 0.00146953,
        "ELEMENT_SET_NO": 999,
        "EPHEMERIS_TYPE": 0,
        "EPOCH": "2026-05-04T10:47:43.328256",
        "INCLINATION": 51.6272,
        "MEAN_ANOMALY": 326.7017,
        "MEAN_MOTION": 15.57233971,
        "MEAN_MOTION_DDOT": 0,
        "MEAN_MOTION_DOT": 0.00041802,
        "NORAD_CAT_ID": 67685,
        "OBJECT_ID": "1998-067YB",
        "OBJECT_NAME": "GXIBA-1",
        "RA_OF_ASC_NODE": 153.5044,
        "REV_AT_EPOCH": 1346
    },
    {
        "ARG_OF_PERICENTER": 16.7038,
        "BSTAR": 0.00071981933,
        "CLASSIFICATION_TYPE": "U",
        "ECCENTRICITY": 0.00115905,
        "ELEMENT_SET_NO": 999,
        "EPHEMERIS_TYPE": 0,
        "EPOCH": "2026-05-04T11:11:45.264768",
        "INCLINATION": 51.6269,
        "MEAN_ANOMALY": 343.4335,
        "MEAN_MOTION": 15.59069215,
        "MEAN_MOTION_DDOT": 0,
        "MEAN_MOTION_DOT": 0.0005733,
        "NORAD_CAT_ID": 67686,
        "OBJECT_ID": "1998-067YC",
        "OBJECT_NAME": "UITMSAT-2",
        "RA_OF_ASC_NODE": 152.8678,
        "REV_AT_EPOCH": 1347
    },
    {
        "ARG_OF_PERICENTER": 18.3548,
        "BSTAR": 0.00057317,
        "CLASSIFICATION_TYPE": "U",
        "ECCENTRICITY": 0.0010945,
        "ELEMENT_SET_NO": 999,
        "EPHEMERIS_TYPE": 0,
        "EPOCH": "2026-05-04T18:47:33.886176",
        "INCLINATION": 51.6282,
        "MEAN_ANOMALY": 341.7836,
        "MEAN_MOTION": 15.5688511,
        "MEAN_MOTION_DDOT": 0,
        "MEAN_MOTION_DOT": 0.00041827,
        "NORAD_CAT_ID": 67687,
        "OBJECT_ID": "1998-067YD",
        "OBJECT_NAME": "HMU-SAT2",
        "RA_OF_ASC_NODE": 151.9851,
        "REV_AT_EPOCH": 1343
    },
    {
        "ARG_OF_PERICENTER": 15.7364,
        "BSTAR": 0.00061083319,
        "CLASSIFICATION_TYPE": "U",
        "ECCENTRICITY": 0.00112496,
        "ELEMENT_SET_NO": 999,
        "EPHEMERIS_TYPE": 0,
        "EPOCH": "2026-05-04T07:05:47.482944",
        "INCLINATION": 51.628,
        "MEAN_ANOMALY": 344.3976,
        "MEAN_MOTION": 15.58217003,
        "MEAN_MOTION_DDOT": 0,
        "MEAN_MOTION_DOT": 0.00046949,
        "NORAD_CAT_ID": 67688,
        "OBJECT_ID": "1998-067YE",
        "OBJECT_NAME": "LEOPARD",
        "RA_OF_ASC_NODE": 153.9805,
        "REV_AT_EPOCH": 1336
    },
    {
        "ARG_OF_PERICENTER": 23.519,
        "BSTAR": 0.00011742,
        "CLASSIFICATION_TYPE": "U",
        "ECCENTRICITY": 0.0007349,
        "ELEMENT_SET_NO": 999,
        "EPHEMERIS_TYPE": 0,
        "EPOCH": "2026-05-04T18:43:40.327104",
        "INCLINATION": 51.6304,
        "MEAN_ANOMALY": 336.6133,
        "MEAN_MOTION": 15.49094049,
        "MEAN_MOTION_DDOT": 0,
        "MEAN_MOTION_DOT": 6.047e-05,
        "NORAD_CAT_ID": 67796,
        "OBJECT_ID": "2026-031A",
        "OBJECT_NAME": "CREW DRAGON 12",
        "RA_OF_ASC_NODE": 154.9608,
        "REV_AT_EPOCH": 56528
    }